{
  "type": "FeatureCollection",
  "features": [
    {
      "type": "Feature",
      "properties": {
        "norad_id": 65729,
        "name": "DRAGONFLY",
        "group": "stations",
        "lat": 35.77720514577003,
        "lon": -164.0801984076428,
        "alt_km": 358.4710369996601,
        "timestamp": "2025-12-07T18:50:15.531475+00:00",
        "meta_object_name": "DRAGONFLY",
        "meta_object_id": "1998-067XH",
        "meta_epoch": "2025-12-06T18:11:12.021792",
        "meta_mean_motion": 15.69539731,
        "meta_eccentricity": 0.00064636,
        "meta_inclination": 51.6244,
        "meta_ra_of_asc_node": 166.34,
        "meta_arg_of_pericenter": 240.1975,
        "meta_mean_anomaly": 119.838,
        "meta_ephemeris_type": 0,
        "meta_classification_type": "U",
        "meta_norad_cat_id": 65729,
        "meta_element_set_no": 999,
        "meta_rev_at_epoch": 1222,
        "meta_bstar": 0.0016006166,
        "meta_mean_motion_dot": 0.00197078,
        "meta_mean_motion_ddot": 0,
        "tle_line1": "1 65729U 98067XH  25340.75777803  .00197078  00000+0  16006-2 0  9993",
        "tle_line2": "2 65729  51.6244 166.3400 0006463 240.1975 119.8380 15.69539731 12226"
      },
      "geometry": {
        "type": "Point",
        "coordinates": [
          -164.0801984076428,
          35.77720514577003
        ]
      }
    },
    {
      "type": "Feature",
      "properties": {
        "norad_id": 65731,
        "name": "1998-067XK",
        "group": "stations",
        "lat": 3.8415537371491357,
        "lon": -20.70394169905659,
        "alt_km": 371.9265536379062,
        "timestamp": "2025-12-07T18:50:15.531486+00:00",
        "meta_object_name": "1998-067XK",
        "meta_object_id": "1998-067XK",
        "meta_epoch": "2025-12-07T05:49:41.884032",
        "meta_mean_motion": 15.64416852,
        "meta_eccentricity": 0.00055141,
        "meta_inclination": 51.6277,
        "meta_ra_of_asc_node": 165.0923,
        "meta_arg_of_pericenter": 212.3483,
        "meta_mean_anomaly": 147.7174,
        "meta_ephemeris_type": 0,
        "meta_classification_type": "U",
        "meta_norad_cat_id": 65731,
        "meta_element_set_no": 999,
        "meta_rev_at_epoch": 1228,
        "meta_bstar": 0.0011654996,
        "meta_mean_motion_dot": 0.00115237,
        "meta_mean_motion_ddot": 0,
        "tle_line1": "1 65731U 98067XK  25341.24284588  .00115237  00000+0  11655-2 0  9996",
        "tle_line2": "2 65731  51.6277 165.0923 0005514 212.3483 147.7174 15.64416852 12282"
      },
      "geometry": {
        "type": "Point",
        "coordinates": [
          -20.70394169905659,
          3.8415537371491357
        ]
      }
    },
    {
      "type": "Feature",
      "properties": {
        "norad_id": 65732,
        "name": "RSP-03",
        "group": "stations",
        "lat": 50.65654084321829,
        "lon": -93.4191534111288,
        "alt_km": 362.34723335264516,
        "timestamp": "2025-12-07T18:50:15.531495+00:00",
        "meta_object_name": "RSP-03",
        "meta_object_id": "1998-067XL",
        "meta_epoch": "2025-12-07T07:42:04.980672",
        "meta_mean_motion": 15.66929092,
        "meta_eccentricity": 0.000631,
        "meta_inclination": 51.6257,
        "meta_ra_of_asc_node": 164.1062,
        "meta_arg_of_pericenter": 215.9526,
        "meta_mean_anomaly": 144.1047,
        "meta_ephemeris_type": 0,
        "meta_classification_type": "U",
        "meta_norad_cat_id": 65732,
        "meta_element_set_no": 999,
        "meta_rev_at_epoch": 1231,
        "meta_bstar": 0.0013579871,
        "meta_mean_motion_dot": 0.00149269,
        "meta_mean_motion_ddot": 0,
        "tle_line1": "1 65732U 98067XL  25341.32089098  .00149269  00000+0  13580-2 0  9996",
        "tle_line2": "2 65732  51.6257 164.1062 0006310 215.9526 144.1047 15.66929092 12318"
      },
      "geometry": {
        "type": "Point",
        "coordinates": [
          -93.4191534111288,
          50.65654084321829
        ]
      }
    },
    {
      "type": "Feature",
      "properties": {
        "norad_id": 65733,
        "name": "GHS-01",
        "group": "stations",
        "lat": -51.33692862435772,
        "lon": 78.58380433925349,
        "alt_km": 352.79641538580745,
        "timestamp": "2025-12-07T18:50:15.531506+00:00",
        "meta_object_name": "GHS-01",
        "meta_object_id": "1998-067XM",
        "meta_epoch": "2025-12-07T05:28:08.173632",
        "meta_mean_motion": 15.72081173,
        "meta_eccentricity": 0.00068995,
        "meta_inclination": 51.6272,
        "meta_ra_of_asc_node": 163.4841,
        "meta_arg_of_pericenter": 242.1163,
        "meta_mean_anomaly": 117.9137,
        "meta_ephemeris_type": 0,
        "meta_classification_type": "U",
        "meta_norad_cat_id": 65733,
        "meta_element_set_no": 999,
        "meta_rev_at_epoch": 1231,
        "meta_bstar": 0.0017831396,
        "meta_mean_motion_dot": 0.00245776,
        "meta_mean_motion_ddot": 0,
        "tle_line1": "1 65733U 98067XM  25341.22787238  .00245776  00000+0  17831-2 0  9990",
        "tle_line2": "2 65733  51.6272 163.4841 0006899 242.1163 117.9137 15.72081173 12318"
      },
      "geometry": {
        "type": "Point",
        "coordinates": [
          78.58380433925349,
          -51.33692862435772
        ]
      }
    },
    {
      "type": "Feature",
      "properties": {
        "norad_id": 65941,
        "name": "YOTSUBA-KULOVER",
        "group": "stations",
        "lat": 33.67367777595198,
        "lon": -163.2720677245112,
        "alt_km": 388.5086609546979,
        "timestamp": "2025-12-07T18:50:15.531516+00:00",
        "meta_object_name": "YOTSUBA-KULOVER",
        "meta_object_id": "1998-067XN",
        "meta_epoch": "2025-12-06T22:38:23.157312",
        "meta_mean_motion": 15.58463042,
        "meta_eccentricity": 0.00019742,
        "meta_inclination": 51.6276,
        "meta_ra_of_asc_node": 169.0887,
        "meta_arg_of_pericenter": 197.0362,
        "meta_mean_anomaly": 163.0565,
        "meta_ephemeris_type": 0,
        "meta_classification_type": "U",
        "meta_norad_cat_id": 65941,
        "meta_element_set_no": 999,
        "meta_rev_at_epoch": 895,
        "meta_bstar": 0.0010714534,
        "meta_mean_motion_dot": 0.00083678,
        "meta_mean_motion_ddot": 0,
        "tle_line1": "1 65941U 98067XN  25340.94332358  .00083678  00000+0  10715-2 0  9993",
        "tle_line2": "2 65941  51.6276 169.0887 0001974 197.0362 163.0565 15.58463042  8958"
      },
      "geometry": {
        "type": "Point",
        "coordinates": [
          -163.2720677245112,
          33.67367777595198
        ]
      }
    },
    {
      "type": "Feature",
      "properties": {
        "norad_id": 65942,
        "name": "BOTAN",
        "group": "stations",
        "lat": -32.46496494771959,
        "lon": 134.02307303494263,
        "alt_km": 388.28337697140887,
        "timestamp": "2025-12-07T18:50:15.531526+00:00",
        "meta_object_name": "BOTAN",
        "meta_object_id": "1998-067XP",
        "meta_epoch": "2025-12-06T18:26:46.199328",
        "meta_mean_motion": 15.61316825,
        "meta_eccentricity": 0.00039822,
        "meta_inclination": 51.627,
        "meta_ra_of_asc_node": 169.4226,
        "meta_arg_of_pericenter": 191.5132,
        "meta_mean_anomaly": 168.5771,
        "meta_ephemeris_type": 0,
        "meta_classification_type": "U",
        "meta_norad_cat_id": 65942,
        "meta_element_set_no": 999,
        "meta_rev_at_epoch": 893,
        "meta_bstar": 0.001480583,
        "meta_mean_motion_dot": 0.00129965,
        "meta_mean_motion_ddot": 0,
        "tle_line1": "1 65942U 98067XP  25340.76859027  .00129965  00000+0  14806-2 0  9996",
        "tle_line2": "2 65942  51.6270 169.4226 0003982 191.5132 168.5771 15.61316825  8936"
      },
      "geometry": {
        "type": "Point",
        "coordinates": [
          134.02307303494263,
          -32.46496494771959
        ]
      }
    },
    {
      "type": "Feature",
      "properties": {
        "norad_id": 65943,
        "name": "E-KAGAKU-1",
        "group": "stations",
        "lat": 33.82739790873313,
        "lon": -163.06303216257726,
        "alt_km": 388.66733622104675,
        "timestamp": "2025-12-07T18:50:15.531535+00:00",
        "meta_object_name": "E-KAGAKU-1",
        "meta_object_id": "1998-067XQ",
        "meta_epoch": "2025-12-06T18:01:16.505472",
        "meta_mean_motion": 15.5838918,
        "meta_eccentricity": 0.00030246,
        "meta_inclination": 51.6289,
        "meta_ra_of_asc_node": 170.0575,
        "meta_arg_of_pericenter": 170.5434,
        "meta_mean_anomaly": 189.5616,
        "meta_ephemeris_type": 0,
        "meta_classification_type": "U",
        "meta_norad_cat_id": 65943,
        "meta_element_set_no": 999,
        "meta_rev_at_epoch": 892,
        "meta_bstar": 0.0011230983,
        "meta_mean_motion_dot": 0.00087541,
        "meta_mean_motion_ddot": 0,
        "tle_line1": "1 65943U 98067XQ  25340.75088548  .00087541  00000+0  11231-2 0  9990",
        "tle_line2": "2 65943  51.6289 170.0575 0003024 170.5434 189.5616 15.58389180  8921"
      },
      "geometry": {
        "type": "Point",
        "coordinates": [
          -163.06303216257726,
          33.82739790873313
        ]
      }
    }
  ]
}